{"type": "FeatureCollection", "features": [ {"type": "Feature", "properties": {"norad_id": 30332, "name": "FENGYUN 1C DEB", "group": "fengyun-1c-debris", "lat": -0.20350288393949473, "lon": -29.714902929720793, "alt_km": 937.2383006767341, "timestamp": "2025-12-24T11:33:00.292459+00:00", "meta": {"OBJECT_NAME": "FENGYUN 1C DEB", "OBJECT_ID": "1999-025AAT", "EPOCH": "2025-12-23T11:41:21.508800", "MEAN_MOTION": 13.76718923, "ECCENTRICITY": 0.01782084, "INCLINATION": 99.7164, "RA_OF_ASC_NODE": 329.2351, "ARG_OF_PERICENTER": 75.1626, "MEAN_ANOMALY": 41.8322, "EPHEMERIS_TYPE": 0, "CLASSIFICATION_TYPE": "U", "NORAD_CAT_ID": 30332, "ELEMENT_SET_NO": 999, "REV_AT_EPOCH": 94863, "BSTAR": 0.00039580741, "MEAN_MOTION_DOT": 3.92e-06, "MEAN_MOTION_DDOT": 0}, "tle": {"line1": "1 30332U 99025AAT 25357.48705450  .00000392  00000+0  39581-3 0  9993", "line2": "2 30332  99.7164 329.2351 0178208  75.1626  41.8322 13.76718923948634"}}, "geometry": {"type": "Point", "coordinates": [-29.714902929720793, -0.20350288393949473]}}, {"type": "Feature", "properties": {"norad_id": 30334, "name": "FENGYUN 1C DEB", "group": "fengyun-1c-debris", "lat": -69.59696556903701, "lon": -107.52615235591482, "alt_km": 870.2240473271677, "timestamp": "2025-12-24T11:33:00.292470+00:00", "meta": {"OBJECT_NAME": "FENGYUN 1C DEB", "OBJECT_ID": "1999-025AAV", "EPOCH": "2025-12-23T07:03:41.712192", "MEAN_MOTION": 13.92410087, "ECCENTRICITY": 0.01450498, "INCLINATION": 99.0212, "RA_OF_ASC_NODE": 96.6015, "ARG_OF_PERICENTER": 312.8262, "MEAN_ANOMALY": 113.239, "EPHEMERIS_TYPE": 0, "CLASSIFICATION_TYPE": "U", "NORAD_CAT_ID": 30334, "ELEMENT_SET_NO": 999, "REV_AT_EPOCH": 95368, "BSTAR": 0.0012303258, "MEAN_MOTION_DOT": 1.68e-05, "MEAN_MOTION_DDOT": 0}, "tle": {"line1": "1 30334U 99025AAV 25357.29423278  .00001680  00000+0  12303-2 0  9992", "line2": "2 30334  99.0212  96.6015 0145049 312.8262 113.2390 13.92410087953687"}}, "geometry": {"type": "Point", "coordinates": [-107.52615235591482, -69.59696556903701]}}, {"type": "Feature", "properties": {"norad_id": 30335, "name": "FENGYUN 1C DEB", "group": "fengyun-1c-debris", "lat": 56.93291291901664, "lon": -176.57291255033388, "alt_km": 794.1260919499437, "timestamp": "2025-12-24T11:33:00.292480+00:00", "meta": {"OBJECT_NAME": "FENGYUN 1C DEB", "OBJECT_ID": "1999-025AAW", "EPOCH": "2025-12-23T23:04:51.227328", "MEAN_MOTION": 14.01362375, "ECCENTRICITY": 0.0133344, "INCLINATION": 98.9049, "RA_OF_ASC_NODE": 348.9861, "ARG_OF_PERICENTER": 100.4085, "MEAN_ANOMALY": 281.2865, "EPHEMERIS_TYPE": 0, "CLASSIFICATION_TYPE": "U", "NORAD_CAT_ID": 30335, "ELEMENT_SET_NO": 999, "REV_AT_EPOCH": 96748, "BSTAR": -4.1022e-07, "MEAN_MOTION_DOT": -4.3e-07, "MEAN_MOTION_DDOT": 0}, "tle": {"line1": "1 30335U 99025AAW 25357.96170402 -.00000043  00000+0 -41022-6 0  9993", "line2": "2 30335  98.9049 348.9861 0133344 100.4085 281.2865 14.01362375967488"}}, "geometry": {"type": "Point", "coordinates": [-176.57291255033388, 56.93291291901664]}}, {"type": "Feature", "properties": {"norad_id": 30336, "name": "FENGYUN 1C DEB", "group": "fengyun-1c-debris", "lat": 3.6618348827863145, "lon": 18.532051123529147, "alt_km": 803.0184085265428, "timestamp": "2025-12-24T11:33:00.292491+00:00", "meta": {"OBJECT_NAME": "FENGYUN 1C DEB", "OBJECT_ID": "1999-025AAX", "EPOCH": "2025-12-23T19:27:08.769888", "MEAN_MOTION": 14.19320722, "ECCENTRICITY": 0.0043003, "INCLINATION": 98.5997, "RA_OF_ASC_NODE": 18.4359, "ARG_OF_PERICENTER": 336.4428, "MEAN_ANOMALY": 201.914, "EPHEMERIS_TYPE": 0, "CLASSIFICATION_TYPE": "U", "NORAD_CAT_ID": 30336, "ELEMENT_SET_NO": 999, "REV_AT_EPOCH": 97759, "BSTAR": 0.00029983196, "MEAN_MOTION_DOT": 5.92e-06, "MEAN_MOTION_DDOT": 0}, "tle": {"line1": "1 30336U 99025AAX 25357.81051817  .00000592  00000+0  29983-3 0  9992", "line2": "2 30336  98.5997  18.4359 0043003 336.4428 201.9140 14.19320722977599"}}, "geometry": {"type": "Point", "coordinates": [18.532051123529147, 3.6618348827863145]}}, {"type": "Feature", "properties": {"norad_id": 30338, "name": "FENGYUN 1C DEB", "group": "fengyun-1c-debris", "lat": 40.8269445134114, "lon": -104.4065315457167, "alt_km": 547.2784746182297, "timestamp": "2025-12-24T11:33:00.292502+00:00", "meta": {"OBJECT_NAME": "FENGYUN 1C DEB", "OBJECT_ID": "1999-025AAZ", "EPOCH": "2025-12-24T02:54:28.915200", "MEAN_MOTION": 14.47651398, "ECCENTRICITY": 0.0272133, "INCLINATION": 98.4575, "RA_OF_ASC_NODE": 67.8469, "ARG_OF_PERICENTER": 159.3609, "MEAN_ANOMALY": 264.703, "EPHEMERIS_TYPE": 0, "CLASSIFICATION_TYPE": "U", "NORAD_CAT_ID": 30338, "ELEMENT_SET_NO": 999, "REV_AT_EPOCH": 98309, "BSTAR": 0.0010801, "MEAN_MOTION_DOT": 6.309e-05, "MEAN_MOTION_DDOT": 0}, "tle": {"line1": "1 30338U 99025AAZ 25358.12116800  .00006309  00000+0  10801-2 0  9993", "line2": "2 30338  98.4575  67.8469 0272133 159.3609 264.7030 14.47651398983097"}}, "geometry": {"type": "Point", "coordinates": [-104.4065315457167, 40.8269445134114]}}, {"type": "Feature", "properties": {"norad_id": 30339, "name": "FENGYUN 1C DEB", "group": "fengyun-1c-debris", "lat": -30.44731997828332, "lon": 110.76207442976569, "alt_km": 767.1725079341286, "timestamp": "2025-12-24T11:33:00.292512+00:00", "meta": {"OBJECT_NAME": "FENGYUN 1C DEB", "OBJECT_ID": "1999-025ABA", "EPOCH": "2025-12-24T02:30:23.050080", "MEAN_MOTION": 14.38315006, "ECCENTRICITY": 0.0018976, "INCLINATION": 98.9733, "RA_OF_ASC_NODE": 105.0393, "ARG_OF_PERICENTER": 48.4825, "MEAN_ANOMALY": 130.9283, "EPHEMERIS_TYPE": 0, "CLASSIFICATION_TYPE": "U", "NORAD_CAT_ID": 30339, "ELEMENT_SET_NO": 999, "REV_AT_EPOCH": 97590, "BSTAR": 0.0024775, "MEAN_MOTION_DOT": 7.517e-05, "MEAN_MOTION_DDOT": 0}, "tle": {"line1": "1 30339U 99025ABA 25358.10443345  .00007517  00000+0  24775-2 0  9996", "line2": "2 30339  98.9733 105.0393 0018976  48.4825 130.9283 14.38315006975909"}}, "geometry": {"type": "Point", "coordinates": [110.76207442976569, -30.44731997828332]}}, {"type": "Feature", "properties": {"norad_id": 30340, "name": "FENGYUN 1C DEB", "group": "fengyun-1c-debris", "lat": -36.279974834118164, "lon": -131.57181592581898, "alt_km": 926.623033995098, "timestamp": "2025-12-24T11:33:00.292523+00:00", "meta": {"OBJECT_NAME": "FENGYUN 1C DEB", "OBJECT_ID": "1999-025ABB", "EPOCH": "2025-12-24T02:16:32.587968", "MEAN_MOTION": 14.04605418, "ECCENTRICITY": 0.0146296, "INCLINATION": 98.9998, "RA_OF_ASC_NODE": 54.7254, "ARG_OF_PERICENTER": 103.4326, "MEAN_ANOMALY": 318.794, "EPHEMERIS_TYPE": 0, "CLASSIFICATION_TYPE": "U", "NORAD_CAT_ID": 30340, "ELEMENT_SET_NO": 999, "REV_AT_EPOCH": 96940, "BSTAR": 0.00022617, "MEAN_MOTION_DOT": 3.55e-06, "MEAN_MOTION_DDOT": 0}, "tle": {"line1": "1 30340U 99025ABB 25358.09482162  .00000355  00000+0  22617-3 0  9993", "line2": "2 30340  98.9998  54.7254 0146296 103.4326 318.7940 14.04605418969401"}}, "geometry": {"type": "Point", "coordinates": [-131.57181592581898, -36.279974834118164]}}, {"type": "Feature", "properties": {"norad_id": 30341, "name": "FENGYUN 1C DEB", "group": "fengyun-1c-debris", "lat": -49.86914004334478, "lon": 56.1829486000381, "alt_km": 817.6693627705572, "timestamp": "2025-12-24T11:33:00.292533+00:00", "meta": {"OBJECT_NAME": "FENGYUN 1C DEB", "OBJECT_ID": "1999-025ABC", "EPOCH": "2025-12-23T05:02:51.571104", "MEAN_MOTION": 14.34258799, "ECCENTRICITY": 0.00521356, "INCLINATION": 99.2192, "RA_OF_ASC_NODE": 245.9366, "ARG_OF_PERICENTER": 27.9682, "MEAN_ANOMALY": 124.3656, "EPHEMERIS_TYPE": 0, "CLASSIFICATION_TYPE": "U", "NORAD_CAT_ID": 30341, "ELEMENT_SET_NO": 999, "REV_AT_EPOCH": 97231, "BSTAR": 0.0033123159, "MEAN_MOTION_DOT": 9.401e-05, "MEAN_MOTION_DDOT": 0}, "tle": {"line1": "1 30341U 99025ABC 25357.21031911  .00009401  00000+0  33123-2 0  9993", "line2": "2 30341  99.2192 245.9366 0052135  27.9682 124.3656 14.34258799972311"}}, "geometry": {"type": "Point", "coordinates": [56.1829486000381, -49.86914004334478]}}, {"type": "Feature", "properties": {"norad_id": 30342, "name": "FENGYUN 1C DEB", "group": "fengyun-1c-debris", "lat": -77.64376716583246, "lon": -125.89495465017329, "alt_km": 1094.1034061528926, "timestamp": "2025-12-24T11:33:00.292544+00:00", "meta": {"OBJECT_NAME": "FENGYUN 1C DEB", "OBJECT_ID": "1999-025ABD", "EPOCH": "2025-12-24T02:06:08.625312", "MEAN_MOTION": 13.80059503, "ECCENTRICITY": 0.0168267, "INCLINATION": 100.1958, "RA_OF_ASC_NODE": 178.4448, "ARG_OF_PERICENTER": 93.52, "MEAN_ANOMALY": 28.9131, "EPHEMERIS_TYPE": 0, "CLASSIFICATION_TYPE": "U", "NORAD_CAT_ID": 30342, "ELEMENT_SET_NO": 999, "REV_AT_EPOCH": 95045, "BSTAR": 0.00057263, "MEAN_MOTION_DOT": 6.12e-06, "MEAN_MOTION_DDOT": 0}, "tle": {"line1": "1 30342U 99025ABD 25358.08759983  .00000612  00000+0  57263-3 0  9993", "line2": "2 30342 100.1958 178.4448 0168267  93.5200  28.9131 13.80059503950454"}}, "geometry": {"type": "Point", "coordinates": [-125.89495465017329, -77.64376716583246]}}, {"type": "Feature", "properties": {"norad_id": 30344, "name": "FENGYUN 1C DEB", "group": "fengyun-1c-debris", "lat": 25.164849694888037, "lon": -94.69596497662636, "alt_km": 716.5335853365123, "timestamp": "2025-12-24T11:33:00.292555+00:00", "meta": {"OBJECT_NAME": "FENGYUN 1C DEB", "OBJECT_ID": "1999-025ABF", "EPOCH": "2025-12-23T05:12:15.804576", "MEAN_MOTION": 14.51932521, "ECCENTRICITY": 0.00068779, "INCLINATION": 98.8196, "RA_OF_ASC_NODE": 79.7941, "ARG_OF_PERICENTER": 91.6792, "MEAN_ANOMALY": 297.4423, "EPHEMERIS_TYPE": 0, "CLASSIFICATION_TYPE": "U", "NORAD_CAT_ID": 30344, "ELEMENT_SET_NO": 999, "REV_AT_EPOCH": 98229, "BSTAR": 0.0023525662, "MEAN_MOTION_DOT": 9.456e-05, "MEAN_MOTION_DDOT": 0}, "tle": {"line1": "1 30344U 99025ABF 25357.21684959  .00009456  00000+0  23526-2 0  9998", "line2": "2 30344  98.8196  79.7941 0006877  91.6792 297.4423 14.51932521982290"}}, "geometry": {"type": "Point", "coordinates": [-94.69596497662636, 25.164849694888037]}}]}